     2.11           N: GPS NAV DATA                         RINEX VERSION / TYPE
teqc  2019Feb25                         20221121 12:27:26UTCPGM / RUN BY / DATE
OSX ker:10.11.6|Core i5|gcc 4.3 -m64|OSX ker:10.10+|=+      COMMENT
    7.4506D-09  1.4901D-08 -5.9605D-08 -1.1921D-07          ION ALPHA
    7.9872D+04  1.6384D+04 -1.3107D+05 -1.3107D+05          ION BETA
   -1.862645149231D-09-5.329070518201D-15    61440     1550 DELTA-UTC: A0,A1,T,W
                                                            END OF HEADER
23 09  9 19  2  0  0.0 3.884295001626D-04-4.547473508865D-13 0.000000000000D+00
    4.400000000000D+01-8.621875000000D+01 4.101242261774D-09-1.032842526128D+00
   -4.570931196213D-06 6.396216573194D-03 1.177936792374D-05 5.153774738312D+03
    5.256000000000D+05-4.097819328308D-08-3.027081705189D-01-1.769512891769D-07
    9.700061467295D-01 1.584062500000D+02 2.969080815711D+00-7.835326372794D-09
   -4.478757986819D-10 1.000000000000D+00 1.549000000000D+03 0.000000000000D+00
    2.000000000000D+00 0.000000000000D+00-2.002343535423D-08 4.400000000000D+01
    5.184180000000D+05 4.000000000000D+00
 2 09  9 19  2  0  0.0 1.735556870699D-04 3.069544618484D-12 0.000000000000D+00
    3.100000000000D+01 1.029062500000D+02 5.112712965017D-09-9.571126655729D-01
    5.330890417099D-06 9.083648445085D-03 9.126961231232D-06 5.153713113785D+03
    5.256000000000D+05-9.313225746155D-09-2.418196257272D+00-1.229345798492D-07
    9.410346326582D-01 1.942812500000D+02 2.893813976042D+00-8.429279684762D-09
    6.153827760199D-10 1.000000000000D+00 1.549000000000D+03 0.000000000000D+00
    2.000000000000D+00 0.000000000000D+00-1.722946763039D-08 3.100000000000D+01
    5.184180000000D+05 4.000000000000D+00
30 09  9 19  2  0  0.0 1.780707389116D-04 3.183231456205D-12 0.000000000000D+00
    6.500000000000D+01-1.643750000000D+01 5.239146802922D-09 1.152062264040D+00
   -1.063570380211D-06 1.192544552032D-02 3.008171916008D-06 5.153660949707D+03
    5.256000000000D+05-1.955777406693D-07 1.741787326742D+00-1.508742570877D-07
    9.528278560533D-01 3.179687500000D+02 1.454305835184D+00-8.834296555340D-09
   -8.928943354902D-11 1.000000000000D+00 1.549000000000D+03 0.000000000000D+00
    2.800000000000D+00 0.000000000000D+00-7.916241884232D-09 6.500000000000D+01
    5.184180000000D+05 4.000000000000D+00
31 09  9 19  2  0  0.0-6.419001147151D-05 4.547473508865D-13 0.000000000000D+00
    2.700000000000D+01 8.253125000000D+01 4.085527321469D-09-2.835585418474D+00
    4.293397068977D-06 7.050830987282D-03 1.065246760845D-05 5.153789680481D+03
    5.256000000000D+05 1.210719347000D-07 7.368090905075D-01 2.048909664154D-08
    9.742041174319D-01 1.829375000000D+02-1.140460691691D+00-7.749965674321D-09
    5.514515415988D-10 1.000000000000D+00 1.549000000000D+03 0.000000000000D+00
    2.000000000000D+00 0.000000000000D+00-1.303851604462D-08 2.700000000000D+01
    5.184180000000D+05 4.000000000000D+00
13 09  9 19  2  0  0.0 3.047795034945D-04 4.547473508865D-13 0.000000000000D+00
    8.900000000000D+01-7.662500000000D+01 3.581220600784D-09-3.557198524968D-01
   -4.012137651443D-06 4.007135867141D-03 1.219101250172D-05 5.153653871536D+03
    5.256000000000D+05-8.568167686462D-08-2.480032764348D-01 3.166496753693D-08
    9.946807397825D-01 1.628750000000D+02 1.659982703251D+00-7.608174053845D-09
   -4.221604418198D-10 1.000000000000D+00 1.549000000000D+03 0.000000000000D+00
    2.000000000000D+00 0.000000000000D+00-1.117587089539D-08 8.900000000000D+01
    5.184180000000D+05 4.000000000000D+00
29 09  9 19  2  0  0.0 5.871616303921D-05 3.410605131648D-12 0.000000000000D+00
    6.600000000000D+01-4.765625000000D+01 4.275178078327D-09 2.709152988262D+00
   -2.743676304817D-06 3.091664169915D-03 1.299940049648D-05 5.153617427826D+03
    5.256000000000D+05 8.754432201386D-08 2.859530815622D+00 1.303851604462D-08
    9.605551678240D-01 1.289375000000D+02-1.273589118853D+00-7.854255732706D-09
   -3.610864692722D-10 1.000000000000D+00 1.549000000000D+03 0.000000000000D+00
    2.000000000000D+00 0.000000000000D+00-8.847564458847D-09 6.600000000000D+01
    5.221680000000D+05 4.000000000000D+00
10 09  9 19  2  0  0.0-2.387724816799D-05-9.094947017729D-13 0.000000000000D+00
    3.200000000000D+01-2.943750000000D+01 5.302006564141D-09 7.546691419704D-02
   -1.445412635803D-06 8.625072892755D-03 1.952052116394D-06 5.153663448334D+03
    5.256000000000D+05-1.862645149231D-09-1.332786752855D+00 3.911554813385D-08
    9.562778352788D-01 3.359687500000D+02 6.250663678603D-01-8.842868340961D-09
   -2.885834492304D-10 1.000000000000D+00 1.549000000000D+03 0.000000000000D+00
    2.000000000000D+00 0.000000000000D+00-2.793967723846D-09 3.200000000000D+01
    5.226120000000D+05 4.000000000000D+00
 5 09  9 19  2  0  0.0-8.731894195080D-05 1.114131009672D-11 0.000000000000D+00
    4.500000000000D+01-2.656250000000D+01 5.151286000310D-09-1.242583818032D-01
   -1.329928636551D-06 2.336532459594D-03 1.862645149231D-06 5.157144615173D+03
    5.256000000000D+05-4.656612873077D-08-1.359968187700D+00-5.774199962616D-08
    9.611919453427D-01 3.397812500000D+02 8.230244763758D-01-8.655360530508D-09
   -2.564392531528D-10 1.000000000000D+00 1.549000000000D+03 0.000000000000D+00
    2.000000000000D+00 0.000000000000D+00-9.313225746155D-09 4.500000000000D+01
    5.226420000000D+05 4.000000000000D+00
25 09  9 19  2  0  0.0 5.997666157782D-04 1.477928890381D-11 0.000000000000D+00
    6.500000000000D+01 5.965625000000D+01 4.061240595544D-09 1.881789485160D+00
    3.119930624962D-06 1.124022167642D-02 1.119635999203D-05 5.153642526627D+03
    5.256000000000D+05 2.533197402954D-07 6.441325689470D-01-2.980232238770D-08
    9.710855622972D-01 1.653125000000D+02-1.213019087754D+00-7.675676865608D-09
    4.435899058715D-10 1.000000000000D+00 1.549000000000D+03 0.000000000000D+00
    2.800000000000D+00 0.000000000000D+00-7.450580596924D-09 6.500000000000D+01
    5.241480000000D+05 4.000000000000D+00
 4 09  9 19  4  0  0.0-2.721161581576D-04-1.739408617141D-11 0.000000000000D+00
    6.600000000000D+01 9.812500000000D+01 4.985207653909D-09 2.929878979460D+00
    5.139037966728D-06 8.769976790063D-03 1.009926199913D-05 5.153808111191D+03
    5.328000000000D+05-8.568167686462D-08-2.400027847548D+00-1.359730958939D-07
    9.402137337331D-01 1.753437500000D+02 5.155674923698D-01-8.157125491304D-09
    5.925246810313D-10 1.000000000000D+00 1.549000000000D+03 0.000000000000D+00
    2.000000000000D+00 0.000000000000D+00-6.053596735001D-09 6.600000000000D+01
    5.256180000000D+05 4.000000000000D+00
 2 09  9 19  4  0  0.0 1.735775731504D-04 3.069544618484D-12 0.000000000000D+00
    9.600000000000D+01 9.175000000000D+01 5.065925301837D-09 9.315773529646D-02
    4.881992936134D-06 9.084736928344D-03 9.346753358841D-06 5.153715805054D+03
    5.328000000000D+05 7.078051567078D-08-2.418256895226D+00-8.754432201386D-08
    9.410387302918D-01 1.896562500000D+02 2.893702936171D+00-8.471067139663D-09
    5.718095324479D-10 1.000000000000D+00 1.549000000000D+03 0.000000000000D+00
    2.000000000000D+00 0.000000000000D+00-1.722946763039D-08 9.600000000000D+01
    5.256180000000D+05 4.000000000000D+00
13 09  9 19  4  0  0.0 3.047827631235D-04 4.547473508865D-13 0.000000000000D+00
    9.000000000000D+01-8.753125000000D+01 3.549790720175D-09 6.943018859461D-01
   -4.591420292854D-06 4.008753574453D-03 1.263990998268D-05 5.153657098770D+03
    5.328000000000D+05-5.215406417847D-08-2.480577730591D-01-5.401670932770D-08
    9.946773794597D-01 1.550312500000D+02 1.660146447672D+00-7.618531628137D-09
   -4.882346226460D-10 1.000000000000D+00 1.549000000000D+03 0.000000000000D+00
    2.000000000000D+00 0.000000000000D+00-1.117587089539D-08 9.000000000000D+01
    5.256180000000D+05 4.000000000000D+00
10 09  9 19  4  0  0.0-2.388330176473D-05-9.094947017729D-13 0.000000000000D+00
    3.700000000000D+01-2.200000000000D+01 5.353080120131D-09 1.125647348530D+00
   -9.387731552124D-07 8.625866612419D-03 2.186745405197D-06 5.153664804459D+03
    5.328000000000D+05 5.215406417847D-08-1.332850948626D+00 1.396983861923D-07
    9.562759290966D-01 3.355000000000D+02 6.250782701618D-01-8.864297805013D-09
   -1.996511734156D-10 1.000000000000D+00 1.549000000000D+03 0.000000000000D+00
    2.000000000000D+00 0.000000000000D+00-2.793967723846D-09 3.700000000000D+01
    5.256180000000D+05 4.000000000000D+00
 5 09  9 19  4  0  0.0-8.723838254809D-05 1.114131009672D-11 0.000000000000D+00
    4.600000000000D+01-1.918750000000D+01 5.209859868718D-09 9.238010451416D-01
   -8.344650268555D-07 2.337396028452D-03 2.073124051094D-06 5.157146133423D+03
    5.328000000000D+05 1.136213541031D-07-1.360031634457D+00 7.078051567078D-08
    9.611904590179D-01 3.385000000000D+02 8.230314354771D-01-8.718220291726D-09
   -9.393248409357D-11 1.000000000000D+00 1.549000000000D+03 0.000000000000D+00
    2.000000000000D+00 0.000000000000D+00-9.313225746155D-09 4.600000000000D+01
    5.256180000000D+05 4.000000000000D+00
29 09  9 19  4  0  0.0 5.874037742615D-05 3.410605131648D-12 0.000000000000D+00
    8.500000000000D+01-4.365625000000D+01 4.231961992489D-09-2.523757998891D+00
   -2.322718501091D-06 3.093157894909D-03 1.220032572746D-05 5.153614669800D+03
    5.328000000000D+05 5.401670932770D-08 2.859474127547D+00 5.960464477539D-08
    9.605527657125D-01 1.398750000000D+02-1.273648703507D+00-7.844969631617D-09
   -3.242992226500D-10 1.000000000000D+00 1.549000000000D+03 0.000000000000D+00
    2.000000000000D+00 0.000000000000D+00-8.847564458847D-09 8.500000000000D+01
    5.256180000000D+05 4.000000000000D+00
